NORAD_CAT_ID,OBJECT_NAME,OBJECT_TYPE,EPOCH,MEAN_MOTION,ECCENTRICITY,INCLINATION,RA_OF_ASC_NODE,ARG_OF_PERICENTER,MEAN_ANOMALY,BSTAR,MEAN_MOTION_DOT,MEAN_MOTION_DDOT,TLE_LINE0,TLE_LINE1,TLE_LINE2,SEMIMAJOR_AXIS,PERIOD,APOGEE,PERIGEE,DECAYED
51790.0,STARLINK-3631,PAYLOAD,2023-04-13 08:14:45,15.0884967,0.0001176,53.2164,73.6842,99.1296,260.9829,0.00056714,8.752e-05,0.0,0 STARLINK-3631,1 51790U 22017Y   23103.34357780  .00008752  00000-0  56714-3 0  9998,2 51790  53.2164  73.6842 0001176  99.1296 260.9829 15.08849670 63740,6917.851,95.437,540.529,538.902,0.0
51790.0,STARLINK-3631,PAYLOAD,2023-04-13 14:36:17,15.08843985,0.0001099,53.2158,72.4943,97.5247,262.587,0.00027718,4.127e-05,0.0,0 STARLINK-3631,1 51790U 22017Y   23103.60853871  .00004127  00000-0  27718-3 0  9993,2 51790  53.2158  72.4943 0001099  97.5247 262.5870 15.08843985 63785,6917.868,95.437,540.493,538.973,0.0
51790.0,STARLINK-3631,PAYLOAD,2023-04-14 04:54:46,15.08834236,0.0001152,53.2161,69.8181,98.7296,261.3827,2.8203e-05,1.61e-06,0.0,0 STARLINK-3631,1 51790U 22017Y   23104.20470301  .00000161  00000-0  28203-4 0  9998,2 51790  53.2161  69.8181 0001152  98.7296 261.3827 15.08834236 63878,6917.898,95.438,540.56,538.966,0.0
51790.0,STARLINK-3631,PAYLOAD,2023-04-15 04:45:33,15.0884527,0.000127,53.217,65.3576,102.8923,257.2211,0.00013035,1.788e-05,0.0,0 STARLINK-3631,1 51790U 22017Y   23105.19830013  .00001788  00000-0  13035-3 0  9999,2 51790  53.2170  65.3576 0001270 102.8923 257.2211 15.08845270 64021,6917.864,95.437,540.608,538.851,0.0
51790.0,STARLINK-3631,PAYLOAD,2023-04-15 20:39:24,15.08844598,0.0001195,53.2169,62.3859,96.8954,263.2174,0.00020365,2.955e-05,0.0,0 STARLINK-3631,1 51790U 22017Y   23105.86070087  .00002955  00000-0  20365-3 0  9991,2 51790  53.2169  62.3859 0001195  96.8954 263.2174 15.08844598 64120,6917.866,95.437,540.558,538.905,0.0
51790.0,STARLINK-3631,PAYLOAD,2023-04-16 04:36:20,15.08838385,0.0001199,53.2167,60.8964,86.646,273.4669,9.0483e-05,1.152e-05,0.0,0 STARLINK-3631,1 51790U 22017Y   23106.19190499  .00001152  00000-0  90483-4 0  9995,2 51790  53.2167  60.8964 0001199  86.6460 273.4669 15.08838385 64175,6917.885,95.438,540.58,538.921,0.0
51790.0,STARLINK-3631,PAYLOAD,2023-04-16 06:11:43,15.08838279,0.0001229,53.2168,60.5986,89.3765,270.7368,0.00017334,2.472e-05,0.0,0 STARLINK-3631,1 51790U 22017Y   23106.25814504  .00002472  00000-0  17334-3 0  9991,2 51790  53.2168  60.5986 0001229  89.3765 270.7368 15.08838279 64188,6917.886,95.438,540.601,538.9,0.0
51790.0,STARLINK-3631,PAYLOAD,2023-04-17 02:51:44,15.08845818,0.0001277,53.2165,56.7326,97.4082,262.7055,0.00011188,1.493e-05,0.0,0 STARLINK-3631,1 51790U 22017Y   23107.11926159  .00001493  00000-0  11188-3 0  9990,2 51790  53.2165  56.7326 0001277  97.4082 262.7055 15.08845818 64311,6917.863,95.437,540.611,538.844,0.0
51790.0,STARLINK-3631,PAYLOAD,2023-04-18 05:53:17,15.08844088,0.0001251,53.2169,51.6774,91.8735,268.24,0.0001863,2.679e-05,0.0,0 STARLINK-3631,1 51790U 22017Y   23108.24534430  .00002679  00000-0  18630-3 0  9998,2 51790  53.2169  51.6774 0001251  91.8735 268.2400 15.08844088 64482,6917.868,95.437,540.598,538.867,0.0
51790.0,STARLINK-3631,PAYLOAD,2023-04-19 05:44:04,15.08846926,0.0001433,53.2183,47.2152,105.252,254.863,-6.3923e-06,-3.9e-06,0.0,0 STARLINK-3631,1 51790U 22017Y   23109.23894455 -.00000390  00000-0 -63923-5 0  9991,2 51790  53.2183  47.2152 0001433 105.2520 254.8630 15.08846926 64639,6917.859,95.437,540.716,538.733,0.0
51790.0,STARLINK-3631,PAYLOAD,2023-04-20 05:34:51,15.08846251,0.0001211,53.2185,42.7575,88.0145,272.0986,8.7378e-05,1.103e-05,0.0,0 STARLINK-3631,1 51790U 22017Y   23110.23254541  .00001103  00000-0  87378-4 0  9999,2 51790  53.2185  42.7575 0001211  88.0145 272.0986 15.08846251 64788,6917.861,95.437,540.564,538.889,0.0
51790.0,STARLINK-3631,PAYLOAD,2023-04-21 11:47:12,15.08837223,0.0001248,53.2188,37.1083,74.7705,285.3425,4.4579e-05,4.22e-06,0.0,0 STARLINK-3631,1 51790U 22017Y   23111.49111667  .00000422  00000-0  44579-4 0  9998,2 51790  53.2188  37.1083 0001248  74.7705 285.3425 15.08837223 64972,6917.889,95.438,540.617,538.891,0.0
51790.0,STARLINK-3631,PAYLOAD,2023-04-21 19:44:08,15.08841879,0.0001023,53.2187,35.6212,78.6064,281.5043,4.6551e-05,4.53e-06,0.0,0 STARLINK-3631,1 51790U 22017Y   23111.82231588  .00000453  00000-0  46551-4 0  9996,2 51790  53.2187  35.6212 0001023  78.6064 281.5043 15.08841879 65023,6917.875,95.437,540.447,539.032,0.0
51790.0,STARLINK-3631,PAYLOAD,2023-04-22 02:05:39,15.08848675,8.3e-05,53.2183,34.432,83.7421,276.3665,9.7171e-05,1.259e-05,0.0,0 STARLINK-3631,1 51790U 22017Y   23112.08726711  .00001259  00000-0  97171-4 0  9991,2 51790  53.2183  34.4320 0000830  83.7421 276.3665 15.08848675 65062,6917.854,95.437,540.293,539.145,0.0
51790.0,STARLINK-3631,PAYLOAD,2023-04-22 17:59:31,15.08838637,0.0001277,53.2189,31.4586,77.1076,283.0059,0.00018304,2.626e-05,0.0,0 STARLINK-3631,1 51790U 22017Y   23112.74967402  .00002626  00000-0  18304-3 0  9997,2 51790  53.2189  31.4586 0001277  77.1076 283.0059 15.08838637 65168,6917.885,95.438,540.633,538.866,0.0
51790.0,STARLINK-3631,PAYLOAD,2023-04-23 01:56:28,15.08833976,0.0001101,53.2188,29.9718,75.6421,284.4694,2.0363e-05,3.6e-07,0.0,0 STARLINK-3631,1 51790U 22017Y   23113.08088193  .00000036  00000-0  20363-4 0  9998,2 51790  53.2188  29.9718 0001101  75.6421 284.4694 15.08833976 65216,6917.899,95.438,540.525,539.002,0.0
51790.0,STARLINK-3631,PAYLOAD,2023-04-24 03:22:35,15.08880296,0.0001085,53.2186,25.2142,79.1794,280.932,0.00027129,4.037e-05,0.0,0 STARLINK-3631,1 51790U 22017Y   23114.14068827  .00004037  00000-0  27129-3 0  9999,2 51790  53.2186  25.2142 0001085  79.1794 280.9320 15.08880296 65378,6917.757,95.435,540.373,538.872,0.0
51790.0,STARLINK-3631,PAYLOAD,2023-04-25 00:02:35,15.08875652,9.73e-05,53.2175,21.3497,76.6937,283.4164,0.00056558,8.733e-05,0.0,0 STARLINK-3631,1 51790U 22017Y   23115.00180118  .00008733  00000-0  56558-3 0  9998,2 51790  53.2175  21.3497 0000973  76.6937 283.4164 15.08875652 65501,6917.771,95.435,540.31,538.963,0.0
51790.0,STARLINK-3631,PAYLOAD,2023-04-25 23:53:26,15.08791378,0.0001121,53.2181,16.8899,72.5833,287.5282,-0.0010071,-0.00016258,0.0,0 STARLINK-3631,1 51790U 22017Y   23115.99544880 -.00016258  00000-0 -10071-2 0  9998,2 51790  53.2181  16.8899 0001121  72.5833 287.5282 15.08791378 65653,6918.029,95.441,540.67,539.118,0.0
51790.0,STARLINK-3631,PAYLOAD,2023-04-26 01:28:50,15.08788623,0.0001154,53.218,16.5924,72.929,287.1828,-0.0010107,-0.00016314,0.0,0 STARLINK-3631,1 51790U 22017Y   23116.06169200 -.00016314  00000-0 -10107-2 0  9999,2 51790  53.2180  16.5924 0001154  72.9290 287.1828 15.08788623 65667,6918.037,95.441,540.701,539.104,0.0
51790.0,STARLINK-3631,PAYLOAD,2023-04-26 17:22:40,15.08827718,0.0001021,53.2177,13.6182,67.8133,292.2967,-0.0003383,-5.666e-05,0.0,0 STARLINK-3631,1 51790U 22017Y   23116.72407816 -.00005666  00000-0 -33830-3 0  9997,2 51790  53.2177  13.6182 0001021  67.8133 292.2967 15.08827718 65760,6917.918,95.438,540.489,539.077,0.0
51790.0,STARLINK-3631,PAYLOAD,2023-04-27 02:54:57,15.08866036,9.78e-05,53.2182,11.8334,78.4367,281.6735,-4.8661e-05,-1.063e-05,0.0,0 STARLINK-3631,1 51790U 22017Y   23117.12149584 -.00001063  00000-0 -48661-4 0  9993,2 51790  53.2182  11.8334 0000978  78.4367 281.6735 15.08866036 65820,6917.801,95.436,540.342,538.989,0.0
51790.0,STARLINK-3631,PAYLOAD,2023-04-27 23:34:59,15.08828733,0.0001935,53.2179,7.9687,90.562,269.5594,0.00064663,0.00010015,0.0,0 STARLINK-3631,1 51790U 22017Y   23117.98263118  .00010015  00000-0  64663-3 0  9991,2 51790  53.2179   7.9687 0001935  90.5620 269.5594 15.08828733 65958,6917.915,95.438,541.118,538.441,0.0
51790.0,STARLINK-3631,PAYLOAD,2023-04-28 09:07:20,15.08806168,0.0001195,53.2183,6.1858,83.6096,276.5032,0.00037784,5.725e-05,0.0,0 STARLINK-3631,1 51790U 22017Y   23118.38009858  .00005725  00000-0  37784-3 0  9991,2 51790  53.2183   6.1858 0001195  83.6096 276.5032 15.08806168 66013,6917.984,95.44,540.676,539.022,0.0
51790.0,STARLINK-3631,PAYLOAD,2023-04-28 17:04:15,15.08844458,0.0001103,53.2185,4.6966,78.0218,282.0897,-0.00010058,-1.888e-05,0.0,0 STARLINK-3631,1 51790U 22017Y   23118.71128542 -.00001888  00000-0 -10058-3 0  9993,2 51790  53.2185   4.6966 0001103  78.0218 282.0897 15.08844458 66061,6917.867,95.437,540.495,538.969,0.0
51790.0,STARLINK-3631,PAYLOAD,2023-04-29 01:01:10,15.08846335,9.08e-05,53.2185,3.2117,95.9434,264.1661,-6.6692e-05,-1.349e-05,0.0,0 STARLINK-3631,1 51790U 22017Y   23119.04248117 -.00001349  00000-0 -66692-4 0  9999,2 51790  53.2185   3.2117 0000908  95.9434 264.1661 15.08846335 66116,6917.861,95.437,540.354,539.098,0.0
51790.0,STARLINK-3631,PAYLOAD,2023-04-29 18:30:24,15.08846013,8.44e-05,53.2181,359.94,100.8463,259.2624,-6.1834e-05,-1.272e-05,0.0,0 STARLINK-3631,1 51790U 22017Y   23119.77112003 -.00001272  00000-0 -61834-4 0  9991,2 51790  53.2181 359.9400 0000844 100.8463 259.2624 15.08846013 66224,6917.862,95.437,540.311,539.143,0.0
51790.0,STARLINK-3631,PAYLOAD,2023-04-30 00:51:56,15.08849973,8.93e-05,53.2171,358.7513,103.2393,256.8699,2.9263e-05,1.78e-06,0.0,0 STARLINK-3631,1 51790U 22017Y   23120.03607190  .00000178  00000-0  29263-4 0  9990,2 51790  53.2171 358.7513 0000893 103.2393 256.8699 15.08849973 66265,6917.85,95.437,540.333,539.097,0.0
51790.0,STARLINK-3631,PAYLOAD,2023-04-30 15:10:25,15.08836997,9.73e-05,53.2165,356.0749,111.5928,248.5168,0.00013546,1.869e-05,0.0,0 STARLINK-3631,1 51790U 22017Y   23120.63223942  .00001869  00000-0  13546-3 0  9999,2 51790  53.2165 356.0749 0000973 111.5928 248.5168 15.08836997 66356,6917.89,95.438,540.428,539.081,0.0
51790.0,STARLINK-3631,PAYLOAD,2023-04-30 23:07:21,15.0883721,9e-05,53.2172,354.5875,108.8951,251.2139,6.9805e-05,8.23e-06,0.0,0 STARLINK-3631,1 51790U 22017Y   23120.96344053  .00000823  00000-0  69805-4 0  9991,2 51790  53.2172 354.5875 0000900 108.8951 251.2139 15.08837210 66406,6917.889,95.438,540.377,539.131,0.0
